FREGAT DEB              
1 49271U 11037PF  25333.13056905  .00007028  00000+0  15567-1 0  9991
2 49271  51.6189 239.6738 0870512 194.3628 163.0950 12.34304223200256
HRC MONOBLOCK CAMERA    
1 66052U 98067XR  25333.27077128  .00034402  00000+0  54828-3 0  9991
2 66052  51.6298 208.5998 0004608 130.5294 229.6098 15.52902397  6741
SZ-21 MODULE            
1 66515U 25246C   25333.81586787  .00027119  00000+0  30963-3 0  9991
2 66515  41.4760  94.8298 0005401 181.8397 178.2423 15.61565337  2421
CZ-2F R/B               
1 66646U 25272B   25330.47076975  .00449059  75676-5  29319-3 0  9998
2 66646  41.4431 114.9009 0121079 133.7676 227.3272 16.01945612   217
SL-4 R/B                
1 66665U 25275B   25333.34681791  .08397088  12512-4  39285-3 0  9993
2 66665  51.6501 207.6669 0004581  68.9636 291.1882 16.43094745   331
